[{"OBJECT_NAME":"QIANFAN-46","OBJECT_ID":"2024-232L","EPOCH":"2026-03-09T21:51:08.064864","MEAN_MOTION":13.51004002,"ECCENTRICITY":0.00130206,"INCLINATION":89.0066,"RA_OF_ASC_NODE":32.4916,"ARG_OF_PERICENTER":313.8853,"MEAN_ANOMALY":46.1222,"EPHEMERIS_TYPE":0,"CLASSIFICATION_TYPE":"U","NORAD_CAT_ID":62247,"ELEMENT_SET_NO":999,"REV_AT_EPOCH":11098,"BSTAR":0.00013832903,"MEAN_MOTION_DOT":1.01e-6,"MEAN_MOTION_DDOT":0},{"OBJECT_NAME":"SCOUT G-1 DEB","OBJECT_ID":"1988-074E","EPOCH":"2026-03-09T08:26:13.437024","MEAN_MOTION":13.51210593,"ECCENTRICITY":0.00877717,"INCLINATION":90.0407,"RA_OF_ASC_NODE":23.6105,"ARG_OF_PERICENTER":10.0568,"MEAN_ANOMALY":148.7224,"EPHEMERIS_TYPE":0,"CLASSIFICATION_TYPE":"U","NORAD_CAT_ID":19516,"ELEMENT_SET_NO":999,"REV_AT_EPOCH":84512,"BSTAR":0.00079659273,"MEAN_MOTION_DOT":5.38e-6,"MEAN_MOTION_DDOT":0}]
